<?xml version="1.0" encoding="UTF-8"?>
<ndm xmlns:xsi="http://www.w3.org/2001/XMLSchema-instance" xsi:noNamespaceSchemaLocation="https://sanaregistry.org/r/ndmxml_unqualified/ndmxml-2.0.0-master-2.0.xsd">
<omm id="CCSDS_OMM_VERS" version="2.0">
<header><CREATION_DATE/><ORIGINATOR/></header><body><segment><metadata><OBJECT_NAME>ONEWEB-0618</OBJECT_NAME><OBJECT_ID>2023-004V</OBJECT_ID><CENTER_NAME>EARTH</CENTER_NAME><REF_FRAME>TEME</REF_FRAME><TIME_SYSTEM>UTC</TIME_SYSTEM><MEAN_ELEMENT_THEORY>SGP4</MEAN_ELEMENT_THEORY></metadata><data><meanElements><EPOCH>2023-12-27T22:26:31.218720</EPOCH><MEAN_MOTION>14.26705485</MEAN_MOTION><ECCENTRICITY>.001531</ECCENTRICITY><INCLINATION>86.9109</INCLINATION><RA_OF_ASC_NODE>154.3821</RA_OF_ASC_NODE><ARG_OF_PERICENTER>118.4060</ARG_OF_PERICENTER><MEAN_ANOMALY>241.8677</MEAN_ANOMALY></meanElements><tleParameters><EPHEMERIS_TYPE>0</EPHEMERIS_TYPE><CLASSIFICATION_TYPE>U</CLASSIFICATION_TYPE><NORAD_CAT_ID>55159</NORAD_CAT_ID><ELEMENT_SET_NO>999</ELEMENT_SET_NO><REV_AT_EPOCH>5078</REV_AT_EPOCH><BSTAR>.13569E-2</BSTAR><MEAN_MOTION_DOT>.3303E-4</MEAN_MOTION_DOT><MEAN_MOTION_DDOT>0</MEAN_MOTION_DDOT></tleParameters></data></segment></body></omm>
<omm id="CCSDS_OMM_VERS" version="2.0">
<header><CREATION_DATE/><ORIGINATOR/></header><body><segment><metadata><OBJECT_NAME>ONEWEB-0619</OBJECT_NAME><OBJECT_ID>2023-004W</OBJECT_ID><CENTER_NAME>EARTH</CENTER_NAME><REF_FRAME>TEME</REF_FRAME><TIME_SYSTEM>UTC</TIME_SYSTEM><MEAN_ELEMENT_THEORY>SGP4</MEAN_ELEMENT_THEORY></metadata><data><meanElements><EPOCH>2023-12-27T21:38:11.541408</EPOCH><MEAN_MOTION>13.17648658</MEAN_MOTION><ECCENTRICITY>.0000835</ECCENTRICITY><INCLINATION>87.9201</INCLINATION><RA_OF_ASC_NODE>185.2281</RA_OF_ASC_NODE><ARG_OF_PERICENTER>103.6874</ARG_OF_PERICENTER><MEAN_ANOMALY>256.4351</MEAN_ANOMALY></meanElements><tleParameters><EPHEMERIS_TYPE>0</EPHEMERIS_TYPE><CLASSIFICATION_TYPE>U</CLASSIFICATION_TYPE><NORAD_CAT_ID>55160</NORAD_CAT_ID><ELEMENT_SET_NO>999</ELEMENT_SET_NO><REV_AT_EPOCH>4877</REV_AT_EPOCH><BSTAR>-.34758E-5</BSTAR><MEAN_MOTION_DOT>.12E-6</MEAN_MOTION_DOT><MEAN_MOTION_DDOT>0</MEAN_MOTION_DDOT></tleParameters></data></segment></body></omm>
<omm id="CCSDS_OMM_VERS" version="2.0">
<header><CREATION_DATE/><ORIGINATOR/></header><body><segment><metadata><OBJECT_NAME>ONEWEB-0620</OBJECT_NAME><OBJECT_ID>2023-004X</OBJECT_ID><CENTER_NAME>EARTH</CENTER_NAME><REF_FRAME>TEME</REF_FRAME><TIME_SYSTEM>UTC</TIME_SYSTEM><MEAN_ELEMENT_THEORY>SGP4</MEAN_ELEMENT_THEORY></metadata><data><meanElements><EPOCH>2023-12-27T14:58:07.967712</EPOCH><MEAN_MOTION>13.11416370</MEAN_MOTION><ECCENTRICITY>.0001831</ECCENTRICITY><INCLINATION>87.8960</INCLINATION><RA_OF_ASC_NODE>200.4737</RA_OF_ASC_NODE><ARG_OF_PERICENTER>71.8651</ARG_OF_PERICENTER><MEAN_ANOMALY>288.2676</MEAN_ANOMALY></meanElements><tleParameters><EPHEMERIS_TYPE>0</EPHEMERIS_TYPE><CLASSIFICATION_TYPE>U</CLASSIFICATION_TYPE><NORAD_CAT_ID>55161</NORAD_CAT_ID><ELEMENT_SET_NO>999</ELEMENT_SET_NO><REV_AT_EPOCH>4753</REV_AT_EPOCH><BSTAR>.14857E-2</BSTAR><MEAN_MOTION_DOT>.539E-5</MEAN_MOTION_DOT><MEAN_MOTION_DDOT>0</MEAN_MOTION_DDOT></tleParameters></data></segment></body></omm>
<omm id="CCSDS_OMM_VERS" version="2.0">
<header><CREATION_DATE/><ORIGINATOR/></header><body><segment><metadata><OBJECT_NAME>ONEWEB-0621</OBJECT_NAME><OBJECT_ID>2023-004Y</OBJECT_ID><CENTER_NAME>EARTH</CENTER_NAME><REF_FRAME>TEME</REF_FRAME><TIME_SYSTEM>UTC</TIME_SYSTEM><MEAN_ELEMENT_THEORY>SGP4</MEAN_ELEMENT_THEORY></metadata><data><meanElements><EPOCH>2023-12-27T15:35:30.653376</EPOCH><MEAN_MOTION>13.11414598</MEAN_MOTION><ECCENTRICITY>.0001041</ECCENTRICITY><INCLINATION>87.8954</INCLINATION><RA_OF_ASC_NODE>200.4426</RA_OF_ASC_NODE><ARG_OF_PERICENTER>75.4508</ARG_OF_PERICENTER><MEAN_ANOMALY>284.6735</MEAN_ANOMALY></meanElements><tleParameters><EPHEMERIS_TYPE>0</EPHEMERIS_TYPE><CLASSIFICATION_TYPE>U</CLASSIFICATION_TYPE><NORAD_CAT_ID>55162</NORAD_CAT_ID><ELEMENT_SET_NO>999</ELEMENT_SET_NO><REV_AT_EPOCH>4751</REV_AT_EPOCH><BSTAR>-.45113E-3</BSTAR><MEAN_MOTION_DOT>-.147E-5</MEAN_MOTION_DOT><MEAN_MOTION_DDOT>0</MEAN_MOTION_DDOT></tleParameters></data></segment></body></omm>
<omm id="CCSDS_OMM_VERS" version="2.0">
<header><CREATION_DATE/><ORIGINATOR/></header><body><segment><metadata><OBJECT_NAME>ONEWEB-0622</OBJECT_NAME><OBJECT_ID>2023-004Z</OBJECT_ID><CENTER_NAME>EARTH</CENTER_NAME><REF_FRAME>TEME</REF_FRAME><TIME_SYSTEM>UTC</TIME_SYSTEM><MEAN_ELEMENT_THEORY>SGP4</MEAN_ELEMENT_THEORY></metadata><data><meanElements><EPOCH>2023-12-27T13:54:59.633568</EPOCH><MEAN_MOTION>13.11416468</MEAN_MOTION><ECCENTRICITY>.0001837</ECCENTRICITY><INCLINATION>87.8956</INCLINATION><RA_OF_ASC_NODE>200.4698</RA_OF_ASC_NODE><ARG_OF_PERICENTER>55.4209</ARG_OF_PERICENTER><MEAN_ANOMALY>304.7092</MEAN_ANOMALY></meanElements><tleParameters><EPHEMERIS_TYPE>0</EPHEMERIS_TYPE><CLASSIFICATION_TYPE>U</CLASSIFICATION_TYPE><NORAD_CAT_ID>55163</NORAD_CAT_ID><ELEMENT_SET_NO>999</ELEMENT_SET_NO><REV_AT_EPOCH>4749</REV_AT_EPOCH><BSTAR>-.1084E-2</BSTAR><MEAN_MOTION_DOT>-.371E-5</MEAN_MOTION_DOT><MEAN_MOTION_DDOT>0</MEAN_MOTION_DDOT></tleParameters></data></segment></body></omm>
<omm id="CCSDS_OMM_VERS" version="2.0">
<header><CREATION_DATE/><ORIGINATOR/></header><body><segment><metadata><OBJECT_NAME>ONEWEB-0623</OBJECT_NAME><OBJECT_ID>2023-004AA</OBJECT_ID><CENTER_NAME>EARTH</CENTER_NAME><REF_FRAME>TEME</REF_FRAME><TIME_SYSTEM>UTC</TIME_SYSTEM><MEAN_ELEMENT_THEORY>SGP4</MEAN_ELEMENT_THEORY></metadata><data><meanElements><EPOCH>2023-12-27T21:31:22.342368</EPOCH><MEAN_MOTION>13.17648778</MEAN_MOTION><ECCENTRICITY>.0001477</ECCENTRICITY><INCLINATION>87.9182</INCLINATION><RA_OF_ASC_NODE>185.2833</RA_OF_ASC_NODE><ARG_OF_PERICENTER>54.9497</ARG_OF_PERICENTER><MEAN_ANOMALY>305.1773</MEAN_ANOMALY></meanElements><tleParameters><EPHEMERIS_TYPE>0</EPHEMERIS_TYPE><CLASSIFICATION_TYPE>U</CLASSIFICATION_TYPE><NORAD_CAT_ID>55164</NORAD_CAT_ID><ELEMENT_SET_NO>999</ELEMENT_SET_NO><REV_AT_EPOCH>4876</REV_AT_EPOCH><BSTAR>-.64977E-4</BSTAR><MEAN_MOTION_DOT>-.12E-6</MEAN_MOTION_DOT><MEAN_MOTION_DDOT>0</MEAN_MOTION_DDOT></tleParameters></data></segment></body></omm>
<omm id="CCSDS_OMM_VERS" version="2.0">
<header><CREATION_DATE/><ORIGINATOR/></header><body><segment><metadata><OBJECT_NAME>ONEWEB-0624</OBJECT_NAME><OBJECT_ID>2023-004AB</OBJECT_ID><CENTER_NAME>EARTH</CENTER_NAME><REF_FRAME>TEME</REF_FRAME><TIME_SYSTEM>UTC</TIME_SYSTEM><MEAN_ELEMENT_THEORY>SGP4</MEAN_ELEMENT_THEORY></metadata><data><meanElements><EPOCH>2023-12-27T22:18:05.796864</EPOCH><MEAN_MOTION>13.12444035</MEAN_MOTION><ECCENTRICITY>.0001278</ECCENTRICITY><INCLINATION>87.9076</INCLINATION><RA_OF_ASC_NODE>170.1131</RA_OF_ASC_NODE><ARG_OF_PERICENTER>83.4777</ARG_OF_PERICENTER><MEAN_ANOMALY>276.6497</MEAN_ANOMALY></meanElements><tleParameters><EPHEMERIS_TYPE>0</EPHEMERIS_TYPE><CLASSIFICATION_TYPE>U</CLASSIFICATION_TYPE><NORAD_CAT_ID>55165</NORAD_CAT_ID><ELEMENT_SET_NO>999</ELEMENT_SET_NO><REV_AT_EPOCH>4970</REV_AT_EPOCH><BSTAR>.11646E-2</BSTAR><MEAN_MOTION_DOT>.432E-5</MEAN_MOTION_DOT><MEAN_MOTION_DDOT>0</MEAN_MOTION_DDOT></tleParameters></data></segment></body></omm>
<omm id="CCSDS_OMM_VERS" version="2.0">
<header><CREATION_DATE/><ORIGINATOR/></header><body><segment><metadata><OBJECT_NAME>ONEWEB-0625</OBJECT_NAME><OBJECT_ID>2023-004AC</OBJECT_ID><CENTER_NAME>EARTH</CENTER_NAME><REF_FRAME>TEME</REF_FRAME><TIME_SYSTEM>UTC</TIME_SYSTEM><MEAN_ELEMENT_THEORY>SGP4</MEAN_ELEMENT_THEORY></metadata><data><meanElements><EPOCH>2023-12-27T21:15:25.852032</EPOCH><MEAN_MOTION>13.17649148</MEAN_MOTION><ECCENTRICITY>.0001195</ECCENTRICITY><INCLINATION>87.9184</INCLINATION><RA_OF_ASC_NODE>185.2853</RA_OF_ASC_NODE><ARG_OF_PERICENTER>99.9261</ARG_OF_PERICENTER><MEAN_ANOMALY>260.2005</MEAN_ANOMALY></meanElements><tleParameters><EPHEMERIS_TYPE>0</EPHEMERIS_TYPE><CLASSIFICATION_TYPE>U</CLASSIFICATION_TYPE><NORAD_CAT_ID>55166</NORAD_CAT_ID><ELEMENT_SET_NO>999</ELEMENT_SET_NO><REV_AT_EPOCH>4875</REV_AT_EPOCH><BSTAR>.26629E-3</BSTAR><MEAN_MOTION_DOT>.116E-5</MEAN_MOTION_DOT><MEAN_MOTION_DDOT>0</MEAN_MOTION_DDOT></tleParameters></data></segment></body></omm>
<omm id="CCSDS_OMM_VERS" version="2.0">
<header><CREATION_DATE/><ORIGINATOR/></header><body><segment><metadata><OBJECT_NAME>ONEWEB-0626</OBJECT_NAME><OBJECT_ID>2023-004AD</OBJECT_ID><CENTER_NAME>EARTH</CENTER_NAME><REF_FRAME>TEME</REF_FRAME><TIME_SYSTEM>UTC</TIME_SYSTEM><MEAN_ELEMENT_THEORY>SGP4</MEAN_ELEMENT_THEORY></metadata><data><meanElements><EPOCH>2023-12-27T13:44:19.363776</EPOCH><MEAN_MOTION>13.17647176</MEAN_MOTION><ECCENTRICITY>.000212</ECCENTRICITY><INCLINATION>87.9199</INCLINATION><RA_OF_ASC_NODE>185.3473</RA_OF_ASC_NODE><ARG_OF_PERICENTER>87.1385</ARG_OF_PERICENTER><MEAN_ANOMALY>272.9989</MEAN_ANOMALY></meanElements><tleParameters><EPHEMERIS_TYPE>0</EPHEMERIS_TYPE><CLASSIFICATION_TYPE>U</CLASSIFICATION_TYPE><NORAD_CAT_ID>55167</NORAD_CAT_ID><ELEMENT_SET_NO>999</ELEMENT_SET_NO><REV_AT_EPOCH>4871</REV_AT_EPOCH><BSTAR>-.12274E-2</BSTAR><MEAN_MOTION_DOT>-.464E-5</MEAN_MOTION_DOT><MEAN_MOTION_DDOT>0</MEAN_MOTION_DDOT></tleParameters></data></segment></body></omm>

</ndm>
